STARLINK-6281           
1 56410U 23061AN  26068.34054372 -.00000058  00000+0  10744-4 0  9991
2 56410  42.9998 186.2307 0001092 260.1945  99.8774 15.02536800156854
KUIPER-00139            
1 65765U 25217D   26068.30974975  .00011274  00000+0  87196-3 0  9990
2 65765  51.8865  35.5400 0007119 318.9010  41.1425 15.01890214 24959
